{
  "type": "FeatureCollection",
  "name": "study_areas",
  "crs": {
    "type": "name",
    "properties": {
      "name": "EPSG:3857"
    }
  },
  "features": [
    {
      "type": "Feature",
      "properties": {
        "study_area": "songhua",
        "label": "松花江流域"
      },
      "geometry": {
        "type": "Polygon",
        "coordinates": [
          [
            [14047155.2, 5607680.0],
            [14677504.0, 5592320.0],
            [14731264.0, 5618432.0],
            [14585344.0, 5679872.0],
            [14153600.0, 5678336.0],
            [14039424.0, 5649920.0],
            [14047155.2, 5607680.0]
          ]
        ]
      }
    },
    {
      "type": "Feature",
      "properties": {
        "study_area": "liaohe",
        "label": "辽河流域"
      },
      "geometry": {
        "type": "Polygon",
        "coordinates": [
          [
            [13926720.0, 5207168.0],
            [14476800.0, 5194880.0],
            [14568960.0, 5217920.0],
            [14507520.0, 5257088.0],
            [14088192.0, 5263232.0],
            [13911360.0, 5243136.0],
            [13926720.0, 5207168.0]
          ]
        ]
      }
    },
    {
      "type": "Feature",
      "properties": {
        "study_area": "combined",
        "label": "松辽联合区域"
      },
      "geometry": {
        "type": "Polygon",
        "coordinates": [
          [
            [13981440.0, 5421075.2],
            [14242816.0, 5403392.0],
            [14580736.0, 5406464.0],
            [14642176.0, 5434112.0],
            [14519296.0, 5469440.0],
            [14188928.0, 5466368.0],
            [13996800.0, 5447936.0],
            [13981440.0, 5421075.2]
          ]
        ]
      }
    }
  ]
}
